{
    "links": {
        "self": "http://www.neowsapp.com/rest/v1/neo/3653410?api_key=iIulBulltgU6a56xZRHN4H3l9WmuAYTsLGpBGhQ2"
    },
    "id": "3653410",
    "neo_reference_id": "3653410",
    "name": "(2013 VG2)",
    "designation": "2013 VG2",
    "nasa_jpl_url": "http://ssd.jpl.nasa.gov/sbdb.cgi?sstr=3653410",
    "absolute_magnitude_h": 26.4,
    "estimated_diameter": {
        "kilometers": {
            "estimated_diameter_min": 0.0139493823,
            "estimated_diameter_max": 0.0311917671
        },
        "meters": {
            "estimated_diameter_min": 13.9493822934,
            "estimated_diameter_max": 31.1917670523
        },
        "miles": {
            "estimated_diameter_min": 0.0086677416,
            "estimated_diameter_max": 0.0193816595
        },
        "feet": {
            "estimated_diameter_min": 45.7656914036,
            "estimated_diameter_max": 102.3351970157
        }
    },
    "is_potentially_hazardous_asteroid": false,
    "close_approach_data": [
        {
            "close_approach_date": "1962-10-09",
            "close_approach_date_full": "1962-Oct-09 11:03",
            "epoch_date_close_approach": -228142620000,
            "relative_velocity": {
                "kilometers_per_second": "23.7728505307",
                "kilometers_per_hour": "85582.2619104178",
                "miles_per_hour": "53177.4893520593"
            },
            "miss_distance": {
                "astronomical": "0.406567836",
                "lunar": "158.154888204",
                "kilometers": "60821682.27610932",
                "miles": "37792840.889055816"
            },
            "orbiting_body": "Earth"
        },
        {
            "close_approach_date": "2007-10-09",
            "close_approach_date_full": "2007-Oct-09 13:14",
            "epoch_date_close_approach": 1191935640000,
            "relative_velocity": {
                "kilometers_per_second": "4.8109643978",
                "kilometers_per_hour": "17319.4718321156",
                "miles_per_hour": "10761.646261461"
            },
            "miss_distance": {
                "astronomical": "1.0747305663",
                "lunar": "418.0701902907",
                "kilometers": "160777403.542373781",
                "miles": "99902446.0232529378"
            },
            "orbiting_body": "Juptr"
        },
        {
            "close_approach_date": "2013-11-04",
            "close_approach_date_full": "2013-Nov-04 23:57",
            "epoch_date_close_approach": 1383609420000,
            "relative_velocity": {
                "kilometers_per_second": "12.810980932",
                "kilometers_per_hour": "46119.5313551478",
                "miles_per_hour": "28656.8832467584"
            },
            "miss_distance": {
                "astronomical": "0.0067467011",
                "lunar": "2.6244667279",
                "kilometers": "1009292.114086657",
                "miles": "627145.0385915866"
            },
            "orbiting_body": "Earth"
        },
        {
            "close_approach_date": "2013-11-05",
            "close_approach_date_full": "2013-Nov-05 04:20",
            "epoch_date_close_approach": 1383625200000,
            "relative_velocity": {
                "kilometers_per_second": "13.675371834",
                "kilometers_per_hour": "49231.338602395",
                "miles_per_hour": "30590.4392554715"
            },
            "miss_distance": {
                "astronomical": "0.0077836224",
                "lunar": "3.0278291136",
                "kilometers": "1164413.331924288",
                "miles": "723532.8937916544"
            },
            "orbiting_body": "Moon"
        },
        {
            "close_approach_date": "2019-11-12",
            "close_approach_date_full": "2019-Nov-12 09:08",
            "epoch_date_close_approach": 1573549680000,
            "relative_velocity": {
                "kilometers_per_second": "7.5665339311",
                "kilometers_per_hour": "27239.5221519316",
                "miles_per_hour": "16925.5797504599"
            },
            "miss_distance": {
                "astronomical": "1.6278796926",
                "lunar": "633.2452004214",
                "kilometers": "243527334.629214762",
                "miles": "151320868.8966652356"
            },
            "orbiting_body": "Juptr"
        }
    ],
    "orbital_data": {
        "orbit_id": "4",
        "orbit_determination_date": "2017-04-06 08:43:52",
        "first_observation_date": "2013-11-02",
        "last_observation_date": "2013-11-04",
        "data_arc_in_days": 2,
        "observations_used": 48,
        "orbit_uncertainty": "7",
        "minimum_orbit_intersection": ".014937",
        "jupiter_tisserand_invariant": "3.055",
        "epoch_osculation": "2459000.5",
        "eccentricity": ".6541878365437374",
        "semi_major_axis": "2.618168997908935",
        "inclination": "5.726366336013146",
        "ascending_node_longitude": "218.1713118545204",
        "orbital_period": "1547.372737333928",
        "perihelion_distance": ".9053946854610041",
        "perihelion_argument": "227.6458542779752",
        "aphelion_distance": "4.330943310356866",
        "perihelion_time": "2459713.620640213153",
        "mean_anomaly": "194.0907628248247",
        "mean_motion": ".2326524122560594",
        "equinox": "J2000",
        "orbit_class": {
            "orbit_class_type": "APO",
            "orbit_class_description": "Near-Earth asteroid orbits which cross the Earth’s orbit similar to that of 1862 Apollo",
            "orbit_class_range": "a (semi-major axis) > 1.0 AU; q (perihelion) < 1.017 AU"
        }
    },
    "is_sentry_object": false
}